{"type": "FeatureCollection", "features": [ {"type": "Feature", "properties": {"norad_id": 66406, "name": "STARLINK-34840", "group": "last-30-days", "lat": 35.31719927228091, "lon": -45.789323781257, "alt_km": 413.8493418063099, "timestamp": "2025-12-08T21:31:03.445898+00:00", "meta": {"OBJECT_NAME": "STARLINK-34840", "OBJECT_ID": "2025-257AC", "EPOCH": "2025-12-08T13:34:41.658816", "MEAN_MOTION": 15.49353814, "ECCENTRICITY": 4.215e-05, "INCLINATION": 53.1588, "RA_OF_ASC_NODE": 283.707, "ARG_OF_PERICENTER": 123.5038, "MEAN_ANOMALY": 236.6011, "EPHEMERIS_TYPE": 0, "CLASSIFICATION_TYPE": "U", "NORAD_CAT_ID": 66406, "ELEMENT_SET_NO": 999, "REV_AT_EPOCH": 567, "BSTAR": 0.0019441938, "MEAN_MOTION_DOT": 0.00109379, "MEAN_MOTION_DDOT": 0}, "tle": {"line1": "1 66406U 25257AC  25342.56575994  .00109379  00000+0  19442-2 0  9999", "line2": "2 66406  53.1588 283.7070 0000421 123.5038 236.6011 15.49353814  5670"}}, "geometry": {"type": "Point", "coordinates": [-45.789323781257, 35.31719927228091]}}, {"type": "Feature", "properties": {"norad_id": 66407, "name": "STARLINK-35686", "group": "last-30-days", "lat": 31.56939975623446, "lon": -50.43324915769221, "alt_km": 419.8978683920013, "timestamp": "2025-12-08T21:31:03.445909+00:00", "meta": {"OBJECT_NAME": "STARLINK-35686", "OBJECT_ID": "2025-257AD", "EPOCH": "2025-12-08T14:00:01.999872", "MEAN_MOTION": 15.4884343, "ECCENTRICITY": 0.0001076, "INCLINATION": 53.1593, "RA_OF_ASC_NODE": 283.6304, "ARG_OF_PERICENTER": 68.4877, "MEAN_ANOMALY": 25.8702, "EPHEMERIS_TYPE": 0, "CLASSIFICATION_TYPE": "U", "NORAD_CAT_ID": 66407, "ELEMENT_SET_NO": 999, "REV_AT_EPOCH": 582, "BSTAR": -0.043002352, "MEAN_MOTION_DOT": -0.02090036, "MEAN_MOTION_DDOT": 0}, "tle": {"line1": "1 66407U 25257AD  25342.58335648 -.02090036  00000+0 -43002-1 0  9993", "line2": "2 66407  53.1593 283.6304 0001076  68.4877  25.8702 15.48843430  5820"}}, "geometry": {"type": "Point", "coordinates": [-50.43324915769221, 31.56939975623446]}}, {"type": "Feature", "properties": {"norad_id": 66408, "name": "STARLINK-35679", "group": "last-30-days", "lat": 29.123119028616614, "lon": -53.1691496916298, "alt_km": 421.4193874512084, "timestamp": "2025-12-08T21:31:03.445928+00:00", "meta": {"OBJECT_NAME": "STARLINK-35679", "OBJECT_ID": "2025-257AE", "EPOCH": "2025-12-08T08:57:08.502048", "MEAN_MOTION": 15.47234722, "ECCENTRICITY": 0.00086151, "INCLINATION": 53.1603, "RA_OF_ASC_NODE": 284.638, "ARG_OF_PERICENTER": 114.493, "MEAN_ANOMALY": 245.6977, "EPHEMERIS_TYPE": 0, "CLASSIFICATION_TYPE": "U", "NORAD_CAT_ID": 66408, "ELEMENT_SET_NO": 999, "REV_AT_EPOCH": 570, "BSTAR": -0.008237837, "MEAN_MOTION_DOT": -0.0040599, "MEAN_MOTION_DDOT": 0}, "tle": {"line1": "1 66408U 25257AE  25342.37301507 -.00405990  00000+0 -82378-2 0  9995", "line2": "2 66408  53.1603 284.6380 0008615 114.4930 245.6977 15.47234722  5706"}}, "geometry": {"type": "Point", "coordinates": [-53.1691496916298, 29.123119028616614]}}, {"type": "Feature", "properties": {"norad_id": 66409, "name": "CHUTIAN-2 A", "group": "last-30-days", "lat": -4.716021104212178, "lon": -132.9625635677954, "alt_km": 719.8682759862113, "timestamp": "2025-12-08T21:31:03.445938+00:00", "meta": {"OBJECT_NAME": "CHUTIAN-2 A", "OBJECT_ID": "2025-256A", "EPOCH": "2025-12-08T14:02:37.082688", "MEAN_MOTION": 14.49934466, "ECCENTRICITY": 0.00134928, "INCLINATION": 98.2776, "RA_OF_ASC_NODE": 47.4197, "ARG_OF_PERICENTER": 190.2906, "MEAN_ANOMALY": 169.8014, "EPHEMERIS_TYPE": 0, "CLASSIFICATION_TYPE": "U", "NORAD_CAT_ID": 66409, "ELEMENT_SET_NO": 999, "REV_AT_EPOCH": 427, "BSTAR": 0.00036179947, "MEAN_MOTION_DOT": 1.357e-05, "MEAN_MOTION_DDOT": 0}, "tle": {"line1": "1 66409U 25256A   25342.58515142  .00001357  00000+0  36180-3 0  9998", "line2": "2 66409  98.2776  47.4197 0013492 190.2906 169.8014 14.49934466  4276"}}, "geometry": {"type": "Point", "coordinates": [-132.9625635677954, -4.716021104212178]}}, {"type": "Feature", "properties": {"norad_id": 66410, "name": "CHUTIAN-2 B", "group": "last-30-days", "lat": -81.06758939002616, "lon": 159.87781282568412, "alt_km": 727.3140329075795, "timestamp": "2025-12-08T21:31:03.445949+00:00", "meta": {"OBJECT_NAME": "CHUTIAN-2 B", "OBJECT_ID": "2025-256B", "EPOCH": "2025-12-08T12:01:02.397216", "MEAN_MOTION": 14.50918128, "ECCENTRICITY": 0.00136961, "INCLINATION": 98.2797, "RA_OF_ASC_NODE": 47.3789, "ARG_OF_PERICENTER": 193.7504, "MEAN_ANOMALY": 166.332, "EPHEMERIS_TYPE": 0, "CLASSIFICATION_TYPE": "U", "NORAD_CAT_ID": 66410, "ELEMENT_SET_NO": 999, "REV_AT_EPOCH": 426, "BSTAR": 0.00034704134, "MEAN_MOTION_DOT": 1.327e-05, "MEAN_MOTION_DDOT": 0}, "tle": {"line1": "1 66410U 25256B   25342.50072219  .00001327  00000+0  34704-3 0  9992", "line2": "2 66410  98.2797  47.3789 0013696 193.7504 166.3320 14.50918128  4265"}}, "geometry": {"type": "Point", "coordinates": [159.87781282568412, -81.06758939002616]}}, {"type": "Feature", "properties": {"norad_id": 66411, "name": "ZK-1A R/B", "group": "last-30-days", "lat": -67.25922279795854, "lon": -150.040764615984, "alt_km": 411.61664700739766, "timestamp": "2025-12-08T21:31:03.445960+00:00", "meta": {"OBJECT_NAME": "ZK-1A R/B", "OBJECT_ID": "2025-256C", "EPOCH": "2025-12-08T10:48:21.677760", "MEAN_MOTION": 15.01831199, "ECCENTRICITY": 0.02287507, "INCLINATION": 98.3227, "RA_OF_ASC_NODE": 49.9222, "ARG_OF_PERICENTER": 259.2997, "MEAN_ANOMALY": 98.2396, "EPHEMERIS_TYPE": 0, "CLASSIFICATION_TYPE": "U", "NORAD_CAT_ID": 66411, "ELEMENT_SET_NO": 999, "REV_AT_EPOCH": 440, "BSTAR": 0.0007754817, "MEAN_MOTION_DOT": 0.00017849, "MEAN_MOTION_DDOT": 0}, "tle": {"line1": "1 66411U 25256C   25342.45025090  .00017849  00000+0  77548-3 0  9991", "line2": "2 66411  98.3227  49.9222 0228750 259.2997  98.2396 15.01831199  4409"}}, "geometry": {"type": "Point", "coordinates": [-150.040764615984, -67.25922279795854]}}, {"type": "Feature", "properties": {"norad_id": 66412, "name": "HULIANWANG DIGUI 13A", "group": "last-30-days", "lat": -33.734655639437364, "lon": 132.30750533810436, "alt_km": 830.2584805101296, "timestamp": "2025-12-08T21:31:03.445971+00:00", "meta": {"OBJECT_NAME": "HULIANWANG DIGUI 13A", "OBJECT_ID": "2025-258A", "EPOCH": "2025-12-08T08:38:10.619232", "MEAN_MOTION": 14.20432847, "ECCENTRICITY": 0.00076585, "INCLINATION": 50.0042, "RA_OF_ASC_NODE": 280.4566, "ARG_OF_PERICENTER": 343.0746, "MEAN_ANOMALY": 16.9909, "EPHEMERIS_TYPE": 0, "CLASSIFICATION_TYPE": "U", "NORAD_CAT_ID": 66412, "ELEMENT_SET_NO": 999, "REV_AT_EPOCH": 403, "BSTAR": 0.00033138446, "MEAN_MOTION_DOT": 5.57e-06, "MEAN_MOTION_DDOT": 0}, "tle": {"line1": "1 66412U 25258A   25342.35984513  .00000557  00000+0  33138-3 0  9992", "line2": "2 66412  50.0042 280.4566 0007658 343.0746  16.9909 14.20432847  4032"}}, "geometry": {"type": "Point", "coordinates": [132.30750533810436, -33.734655639437364]}}, {"type": "Feature", "properties": {"norad_id": 66413, "name": "HULIANWANG DIGUI 13B", "group": "last-30-days", "lat": 1.1585962408180865, "lon": 97.31003267322347, "alt_km": 831.5329307524535, "timestamp": "2025-12-08T21:31:03.445984+00:00", "meta": {"OBJECT_NAME": "HULIANWANG DIGUI 13B", "OBJECT_ID": "2025-258B", "EPOCH": "2025-12-08T13:55:26.220576", "MEAN_MOTION": 14.19797153, "ECCENTRICITY": 0.00071183, "INCLINATION": 49.9984, "RA_OF_ASC_NODE": 279.6068, "ARG_OF_PERICENTER": 354.2773, "MEAN_ANOMALY": 5.8056, "EPHEMERIS_TYPE": 0, "CLASSIFICATION_TYPE": "U", "NORAD_CAT_ID": 66413, "ELEMENT_SET_NO": 999, "REV_AT_EPOCH": 406, "BSTAR": 0.00049733401, "MEAN_MOTION_DOT": 9.03e-06, "MEAN_MOTION_DDOT": 0}, "tle": {"line1": "1 66413U 25258B   25342.58016459  .00000903  00000+0  49733-3 0  9996", "line2": "2 66413  49.9984 279.6068 0007118 354.2773   5.8056 14.19797153  4062"}}, "geometry": {"type": "Point", "coordinates": [97.31003267322347, 1.1585962408180865]}}, {"type": "Feature", "properties": {"norad_id": 66414, "name": "HULIANWANG DIGUI 13C", "group": "last-30-days", "lat": -12.867013234474062, "lon": 109.32320928448564, "alt_km": 831.8294833495111, "timestamp": "2025-12-08T21:31:03.445995+00:00", "meta": {"OBJECT_NAME": "HULIANWANG DIGUI 13C", "OBJECT_ID": "2025-258C", "EPOCH": "2025-12-08T13:50:17.110752", "MEAN_MOTION": 14.19947362, "ECCENTRICITY": 0.00070001, "INCLINATION": 50.0042, "RA_OF_ASC_NODE": 279.6063, "ARG_OF_PERICENTER": 343.3386, "MEAN_ANOMALY": 16.7294, "EPHEMERIS_TYPE": 0, "CLASSIFICATION_TYPE": "U", "NORAD_CAT_ID": 66414, "ELEMENT_SET_NO": 999, "REV_AT_EPOCH": 406, "BSTAR": 0.00048116814, "MEAN_MOTION_DOT": 8.71e-06, "MEAN_MOTION_DDOT": 0}, "tle": {"line1": "1 66414U 25258C   25342.57658693  .00000871  00000+0  48117-3 0  9997", "line2": "2 66414  50.0042 279.6063 0007000 343.3386  16.7294 14.19947362  4069"}}, "geometry": {"type": "Point", "coordinates": [109.32320928448564, -12.867013234474062]}}, {"type": "Feature", "properties": {"norad_id": 66415, "name": "HULIANWANG DIGUI 13D", "group": "last-30-days", "lat": -39.687330441278256, "lon": 142.35188031842026, "alt_km": 829.3731328599124, "timestamp": "2025-12-08T21:31:03.446006+00:00", "meta": {"OBJECT_NAME": "HULIANWANG DIGUI 13D", "OBJECT_ID": "2025-258D", "EPOCH": "2025-12-08T08:35:29.309568", "MEAN_MOTION": 14.20669727, "ECCENTRICITY": 0.00072244, "INCLINATION": 50.0037, "RA_OF_ASC_NODE": 280.4475, "ARG_OF_PERICENTER": 349.9452, "MEAN_ANOMALY": 10.1314, "EPHEMERIS_TYPE": 0, "CLASSIFICATION_TYPE": "U", "NORAD_CAT_ID": 66415, "ELEMENT_SET_NO": 999, "REV_AT_EPOCH": 403, "BSTAR": 0.00031612211, "MEAN_MOTION_DOT": 5.27e-06, "MEAN_MOTION_DDOT": 0}, "tle": {"line1": "1 66415U 25258D   25342.35797812  .00000527  00000+0  31612-3 0  9991", "line2": "2 66415  50.0037 280.4475 0007224 349.9452  10.1314 14.20669727  4031"}}, "geometry": {"type": "Point", "coordinates": [142.35188031842026, -39.687330441278256]}}]}